[{"OBJECT_NAME":"STARLINK-37087","OBJECT_ID":"2026-054U","EPOCH":"2026-04-03T20:00:01.999008","MEAN_MOTION":15.75273478,"ECCENTRICITY":0.0001209,"INCLINATION":53.1585,"RA_OF_ASC_NODE":186.6823,"ARG_OF_PERICENTER":120.1119,"MEAN_ANOMALY":117.1017,"EPHEMERIS_TYPE":0,"CLASSIFICATION_TYPE":"U","NORAD_CAT_ID":68250,"ELEMENT_SET_NO":999,"REV_AT_EPOCH":395,"BSTAR":0.00017437,"MEAN_MOTION_DOT":0.00026211,"MEAN_MOTION_DDOT":0},{"OBJECT_NAME":"STARLINK-36274","OBJECT_ID":"2026-054V","EPOCH":"2026-04-03T16:03:40.266720","MEAN_MOTION":15.75231575,"ECCENTRICITY":0.0001287,"INCLINATION":53.1593,"RA_OF_ASC_NODE":187.5498,"ARG_OF_PERICENTER":61.8373,"MEAN_ANOMALY":298.2777,"EPHEMERIS_TYPE":0,"CLASSIFICATION_TYPE":"U","NORAD_CAT_ID":68251,"ELEMENT_SET_NO":999,"REV_AT_EPOCH":272,"BSTAR":0.0017072,"MEAN_MOTION_DOT":0.00269482,"MEAN_MOTION_DDOT":0},{"OBJECT_NAME":"STARLINK-37085","OBJECT_ID":"2026-054W","EPOCH":"2026-04-03T15:34:20.346240","MEAN_MOTION":15.80882339,"ECCENTRICITY":0.0001189,"INCLINATION":53.1589,"RA_OF_ASC_NODE":187.4141,"ARG_OF_PERICENTER":60.6283,"MEAN_ANOMALY":299.4858,"EPHEMERIS_TYPE":0,"CLASSIFICATION_TYPE":"U","NORAD_CAT_ID":68252,"ELEMENT_SET_NO":999,"REV_AT_EPOCH":272,"BSTAR":0.001728,"MEAN_MOTION_DOT":0.00354896,"MEAN_MOTION_DDOT":0},{"OBJECT_NAME":"STARLINK-37086","OBJECT_ID":"2026-054X","EPOCH":"2026-04-03T15:33:15.532416","MEAN_MOTION":15.8089927,"ECCENTRICITY":0.0001556,"INCLINATION":53.159,"RA_OF_ASC_NODE":187.409,"ARG_OF_PERICENTER":81.1251,"MEAN_ANOMALY":278.9947,"EPHEMERIS_TYPE":0,"CLASSIFICATION_TYPE":"U","NORAD_CAT_ID":68253,"ELEMENT_SET_NO":999,"REV_AT_EPOCH":272,"BSTAR":0.0016444,"MEAN_MOTION_DOT":0.00337262,"MEAN_MOTION_DDOT":0},{"OBJECT_NAME":"STARLINK-37084","OBJECT_ID":"2026-054Y","EPOCH":"2026-04-03T15:31:05.796768","MEAN_MOTION":15.80895251,"ECCENTRICITY":0.0001042,"INCLINATION":53.1591,"RA_OF_ASC_NODE":187.399,"ARG_OF_PERICENTER":138.0799,"MEAN_ANOMALY":222.0303,"EPHEMERIS_TYPE":0,"CLASSIFICATION_TYPE":"U","NORAD_CAT_ID":68254,"ELEMENT_SET_NO":999,"REV_AT_EPOCH":272,"BSTAR":0.0017762,"MEAN_MOTION_DOT":0.00365506,"MEAN_MOTION_DDOT":0},{"OBJECT_NAME":"STARLINK-37075","OBJECT_ID":"2026-054Z","EPOCH":"2026-04-03T15:32:10.487040","MEAN_MOTION":15.80882294,"ECCENTRICITY":0.0001109,"INCLINATION":53.159,"RA_OF_ASC_NODE":187.4042,"ARG_OF_PERICENTER":65.8867,"MEAN_ANOMALY":294.2271,"EPHEMERIS_TYPE":0,"CLASSIFICATION_TYPE":"U","NORAD_CAT_ID":68255,"ELEMENT_SET_NO":999,"REV_AT_EPOCH":272,"BSTAR":0.0016037,"MEAN_MOTION_DOT":0.00328288,"MEAN_MOTION_DDOT":0},{"OBJECT_NAME":"STARLINK-36333","OBJECT_ID":"2026-054AA","EPOCH":"2026-04-03T15:30:01.007136","MEAN_MOTION":15.80904069,"ECCENTRICITY":0.0001159,"INCLINATION":53.1591,"RA_OF_ASC_NODE":187.3941,"ARG_OF_PERICENTER":83.5554,"MEAN_ANOMALY":276.56,"EPHEMERIS_TYPE":0,"CLASSIFICATION_TYPE":"U","NORAD_CAT_ID":68256,"ELEMENT_SET_NO":999,"REV_AT_EPOCH":272,"BSTAR":0.0017765,"MEAN_MOTION_DOT":0.00365719,"MEAN_MOTION_DDOT":0},{"OBJECT_NAME":"STARLINK-36745","OBJECT_ID":"2026-054AB","EPOCH":"2026-04-03T15:50:35.586240","MEAN_MOTION":15.75207535,"ECCENTRICITY":0.0001265,"INCLINATION":53.1587,"RA_OF_ASC_NODE":187.4887,"ARG_OF_PERICENTER":47.0213,"MEAN_ANOMALY":313.0913,"EPHEMERIS_TYPE":0,"CLASSIFICATION_TYPE":"U","NORAD_CAT_ID":68257,"ELEMENT_SET_NO":999,"REV_AT_EPOCH":272,"BSTAR":0.00096501,"MEAN_MOTION_DOT":0.00149723,"MEAN_MOTION_DDOT":0},{"OBJECT_NAME":"STARLINK-36890","OBJECT_ID":"2026-054AC","EPOCH":"2026-04-03T15:26:46.658112","MEAN_MOTION":15.80902544,"ECCENTRICITY":0.000152,"INCLINATION":53.1591,"RA_OF_ASC_NODE":187.3785,"ARG_OF_PERICENTER":77.465,"MEAN_ANOMALY":282.6543,"EPHEMERIS_TYPE":0,"CLASSIFICATION_TYPE":"U","NORAD_CAT_ID":68258,"ELEMENT_SET_NO":999,"REV_AT_EPOCH":272,"BSTAR":0.0019645,"MEAN_MOTION_DOT":0.0040639,"MEAN_MOTION_DDOT":0},{"OBJECT_NAME":"STARLINK-36323","OBJECT_ID":"2026-054AD","EPOCH":"2026-04-03T15:28:56.430048","MEAN_MOTION":15.80870597,"ECCENTRICITY":0.0001519,"INCLINATION":53.159,"RA_OF_ASC_NODE":187.3883,"ARG_OF_PERICENTER":66.8254,"MEAN_ANOMALY":293.2928,"EPHEMERIS_TYPE":0,"CLASSIFICATION_TYPE":"U","NORAD_CAT_ID":68259,"ELEMENT_SET_NO":999,"REV_AT_EPOCH":272,"BSTAR":0.0016938,"MEAN_MOTION_DOT":0.00347371,"MEAN_MOTION_DDOT":0},{"OBJECT_NAME":"STARLINK-37056","OBJECT_ID":"2026-054AE","EPOCH":"2026-04-03T15:25:41.966112","MEAN_MOTION":15.80875566,"ECCENTRICITY":0.0001154,"INCLINATION":53.1589,"RA_OF_ASC_NODE":187.373,"ARG_OF_PERICENTER":74.0966,"MEAN_ANOMALY":286.0183,"EPHEMERIS_TYPE":0,"CLASSIFICATION_TYPE":"U","NORAD_CAT_ID":68260,"ELEMENT_SET_NO":999,"REV_AT_EPOCH":272,"BSTAR":0.0017648,"MEAN_MOTION_DOT":0.00362689,"MEAN_MOTION_DDOT":0},{"OBJECT_NAME":"TEN-KOH 2","OBJECT_ID":"2025-241B","EPOCH":"2026-04-03T19:44:01.726080","MEAN_MOTION":15.22895196,"ECCENTRICITY":0.0004606,"INCLINATION":51.6394,"RA_OF_ASC_NODE":313.3747,"ARG_OF_PERICENTER":249.7973,"MEAN_ANOMALY":110.2509,"EPHEMERIS_TYPE":0,"CLASSIFICATION_TYPE":"U","NORAD_CAT_ID":68261,"ELEMENT_SET_NO":999,"REV_AT_EPOCH":357,"BSTAR":0.00064666,"MEAN_MOTION_DOT":0.0001507,"MEAN_MOTION_DDOT":0},{"OBJECT_NAME":"STARLINK-37162","OBJECT_ID":"2026-055A","EPOCH":"2026-04-03T20:00:01.999008","MEAN_MOTION":15.80837781,"ECCENTRICITY":0.0001145,"INCLINATION":53.1592,"RA_OF_ASC_NODE":211.2889,"ARG_OF_PERICENTER":82.8381,"MEAN_ANOMALY":84.9642,"EPHEMERIS_TYPE":0,"CLASSIFICATION_TYPE":"U","NORAD_CAT_ID":68262,"ELEMENT_SET_NO":999,"REV_AT_EPOCH":367,"BSTAR":0.00034128,"MEAN_MOTION_DOT":0.00067074,"MEAN_MOTION_DDOT":0},{"OBJECT_NAME":"STARLINK-37156","OBJECT_ID":"2026-055B","EPOCH":"2026-04-03T20:00:01.999008","MEAN_MOTION":15.8083081,"ECCENTRICITY":0.0001065,"INCLINATION":53.1592,"RA_OF_ASC_NODE":211.2801,"ARG_OF_PERICENTER":81.4837,"MEAN_ANOMALY":90.5952,"EPHEMERIS_TYPE":0,"CLASSIFICATION_TYPE":"U","NORAD_CAT_ID":68263,"ELEMENT_SET_NO":999,"REV_AT_EPOCH":367,"BSTAR":0.00037981,"MEAN_MOTION_DOT":0.00074768,"MEAN_MOTION_DDOT":0},{"OBJECT_NAME":"STARLINK-37163","OBJECT_ID":"2026-055C","EPOCH":"2026-04-03T20:00:01.999008","MEAN_MOTION":15.80829863,"ECCENTRICITY":9.64e-5,"INCLINATION":53.1592,"RA_OF_ASC_NODE":211.2615,"ARG_OF_PERICENTER":84.9445,"MEAN_ANOMALY":95.6782,"EPHEMERIS_TYPE":0,"CLASSIFICATION_TYPE":"U","NORAD_CAT_ID":68264,"ELEMENT_SET_NO":999,"REV_AT_EPOCH":367,"BSTAR":0.00038989,"MEAN_MOTION_DOT":0.00076786,"MEAN_MOTION_DDOT":0},{"OBJECT_NAME":"STARLINK-37133","OBJECT_ID":"2026-055D","EPOCH":"2026-04-03T20:00:01.999008","MEAN_MOTION":15.80833959,"ECCENTRICITY":0.000121,"INCLINATION":53.1592,"RA_OF_ASC_NODE":211.2708,"ARG_OF_PERICENTER":72.26,"MEAN_ANOMALY":104.0915,"EPHEMERIS_TYPE":0,"CLASSIFICATION_TYPE":"U","NORAD_CAT_ID":68265,"ELEMENT_SET_NO":999,"REV_AT_EPOCH":367,"BSTAR":0.00034194,"MEAN_MOTION_DOT":0.00067194,"MEAN_MOTION_DDOT":0},{"OBJECT_NAME":"STARLINK-37042","OBJECT_ID":"2026-055E","EPOCH":"2026-04-03T20:00:01.999008","MEAN_MOTION":15.80848829,"ECCENTRICITY":6.67e-5,"INCLINATION":53.1591,"RA_OF_ASC_NODE":211.2531,"ARG_OF_PERICENTER":88.4818,"MEAN_ANOMALY":96.4159,"EPHEMERIS_TYPE":0,"CLASSIFICATION_TYPE":"U","NORAD_CAT_ID":68266,"ELEMENT_SET_NO":999,"REV_AT_EPOCH":367,"BSTAR":0.00015304,"MEAN_MOTION_DOT":0.00029577,"MEAN_MOTION_DDOT":0}]
