STARLINK-37087          
1 68250U 26054U   26093.83335647  .00026211  00000+0  17437-3 0  9993
2 68250  53.1585 186.6823 0001209 120.1119 117.1017 15.75273478  3955
STARLINK-36274          
1 68251U 26054V   26093.66921605  .00269482  00000+0  17072-2 0  9993
2 68251  53.1593 187.5498 0001287  61.8373 298.2777 15.75231575  2722
STARLINK-37085          
1 68252U 26054W   26093.64884660  .00354896  00000+0  17280-2 0  9996
2 68252  53.1589 187.4141 0001189  60.6283 299.4858 15.80882339  2729
STARLINK-37086          
1 68253U 26054X   26093.64809644  .00337262  00000+0  16444-2 0  9995
2 68253  53.1590 187.4090 0001556  81.1251 278.9947 15.80899270  2729
STARLINK-37084          
1 68254U 26054Y   26093.64659487  .00365506  00000+0  17762-2 0  9990
2 68254  53.1591 187.3990 0001042 138.0799 222.0303 15.80895251  2729
STARLINK-37075          
1 68255U 26054Z   26093.64734360  .00328288  00000+0  16037-2 0  9995
2 68255  53.1590 187.4042 0001109  65.8867 294.2271 15.80882294  2723
STARLINK-36333          
1 68256U 26054AA  26093.64584499  .00365719  00000+0  17765-2 0  9991
2 68256  53.1591 187.3941 0001159  83.5554 276.5600 15.80904069  2721
STARLINK-36745          
1 68257U 26054AB  26093.66013410  .00149723  00000+0  96501-3 0  9995
2 68257  53.1587 187.4887 0001265  47.0213 313.0913 15.75207535  2724
STARLINK-36890          
1 68258U 26054AC  26093.64359558  .00406390  00000+0  19645-2 0  9999
2 68258  53.1591 187.3785 0001520  77.4650 282.6543 15.80902544  2720
STARLINK-36323          
1 68259U 26054AD  26093.64509757  .00347371  00000+0  16938-2 0  9993
2 68259  53.1590 187.3883 0001519  66.8254 293.2928 15.80870597  2726
STARLINK-37056          
1 68260U 26054AE  26093.64284683  .00362689  00000+0  17648-2 0  9991
2 68260  53.1589 187.3730 0001154  74.0966 286.0183 15.80875566  2727
TEN-KOH 2               
1 68261U 25241B   26093.82224220  .00015070  00000+0  64666-3 0  9992
2 68261  51.6394 313.3747 0004606 249.7973 110.2509 15.22895196  3579
STARLINK-37162          
1 68262U 26055A   26093.83335647  .00067074  00000+0  34128-3 0  9995
2 68262  53.1592 211.2889 0001145  82.8381  84.9642 15.80837781  3670
STARLINK-37156          
1 68263U 26055B   26093.83335647  .00074768  00000+0  37981-3 0  9994
2 68263  53.1592 211.2801 0001065  81.4837  90.5952 15.80830810  3670
STARLINK-37163          
1 68264U 26055C   26093.83335647  .00076786  00000+0  38989-3 0  9996
2 68264  53.1592 211.2615 0000964  84.9445  95.6782 15.80829863  3677
STARLINK-37133          
1 68265U 26055D   26093.83335647  .00067194  00000+0  34194-3 0  9994
2 68265  53.1592 211.2708 0001210  72.2600 104.0915 15.80833959  3673
STARLINK-37042          
1 68266U 26055E   26093.83335647  .00029577  00000+0  15304-3 0  9990
2 68266  53.1591 211.2531 0000667  88.4818  96.4159 15.80848829  3678
